{"fetched_at":"2026-03-30T06:02:59Z","count":15439,"tles":[{"name":"STARLINK-5263","line1":"1 54193U 22141AN  26087.87509759  .00000287  00000+0  36130-4 0  9998","line2":"2 54193  53.2175 268.0361 0001380  89.5689 270.5461 15.08836242188898","category":"Starlink"}]}