{
  "norad_id": 54193,
  "name": "STARLINK-5263",
  "history": [
    {
      "epoch": "2026-03-28T21:00:08.431776",
      "apogee_km": 540.7099598428913,
      "perigee_km": 538.7997915381757,
      "latitude_deg": 8.683026382417653,
      "longitude_deg": 43.3093686401844,
      "semi_major_axis_km": 6917.891875690533,
      "eccentricity": 0.00013806,
      "inclination_deg": 53.2175,
      "raan_deg": 268.0361,
      "arg_perigee_deg": 89.5689,
      "mean_anomaly_deg": 270.5461,
      "mean_motion_rev_day": 15.08836242
    }
  ]
}